STARLINK-4344           
1 53072U 22077AF  26068.51299609  .00000261  00000+0  22300-4 0  9997
2 53072  97.6026 251.0167 0001356  90.2104 269.9278 15.05647696200950
2024-205L               
1 61904U 24205L   26066.14074752  .00013606  00000+0  79283-3 0  9990
2 61904  97.4213 140.2188 0054772 346.2042  13.7688 15.10822925 72825
